OBJECT_NAME,OBJECT_ID,EPOCH,MEAN_MOTION,ECCENTRICITY,INCLINATION,RA_OF_ASC_NODE,ARG_OF_PERICENTER,MEAN_ANOMALY,EPHEMERIS_TYPE,CLASSIFICATION_TYPE,NORAD_CAT_ID,ELEMENT_SET_NO,REV_AT_EPOCH,BSTAR,MEAN_MOTION_DOT,MEAN_MOTION_DDOT
S-NET C,2018-014K,2026-07-13T04:57:04.173120,15.16868362,.0008146,97.5373,99.1155,278.8117,81.2193,0,U,43189,999,46125,.14959E-3,.2878E-4,0
PAZ,2018-020A,2026-07-13T04:34:49.606752,15.19153697,.0001701,97.4454,201.2071,89.7366,270.4063,0,U,43215,999,46495,.53388E-4,.1054E-4,0
GOES 17,2018-022A,2026-07-13T02:46:26.105952,1.00271367,.0000535,1.0012,85.2870,84.5056,73.3198,0,U,43226,999,3068,0,-.185E-5,0
LKW-4,2018-025A,2026-07-12T22:31:51.716064,15.64389361,.0003279,97.6341,6.8731,190.1496,169.9697,0,U,43236,999,46405,.37898E-3,.36258E-3,0
ZHUHAI-1 OVS-02,2018-040B,2026-07-13T05:05:34.167264,15.25360699,.000488,97.0381,209.9024,140.3347,219.8249,0,U,43440,999,45668,.16176E-3,.4014E-4,0
ZHUHAI-1 OHS-02,2018-040C,2026-07-13T04:22:43.764672,15.26250242,.0011058,97.0360,216.8399,131.4052,228.8140,0,U,43441,999,11824,.19166E-3,.4905E-4,0
GAOFEN-6,2018-048A,2026-07-13T03:55:04.596960,14.76381992,.0012149,98.0966,256.8602,87.5289,272.7311,0,U,43484,999,43722,.30565E-4,.16E-5,0
LUOJIA-1 01,2018-048B,2026-07-13T05:02:20.889600,14.87375072,.0009877,97.8103,271.9800,43.4120,316.7873,0,U,43485,999,43808,.42501E-4,.33E-5,0
PAKTES 1A,2018-056A,2026-07-13T04:03:13.576032,14.99199259,.0020005,98.1283,351.7641,26.0822,334.1403,0,U,43529,999,43581,.90426E-4,.104E-4,0
PRSS-1,2018-056B,2026-07-13T04:25:00.001056,14.82025318,.0001281,97.7816,261.3326,85.2015,274.9344,0,U,43530,999,43228,-.15457E-4,-.174E-5,0
HAIYANG-1C,2018-068A,2026-07-13T04:45:09.436032,14.34185686,.001128,98.5188,266.1285,24.0518,336.1191,0,U,43609,999,41081,-.39748E-4,-.155E-5,0
SSTL S1-4,2018-071A,2026-07-13T04:05:58.792704,14.96201490,.0002048,97.4998,64.6997,98.2114,261.9341,0,U,43618,999,42682,.50719E-4,.517E-5,0
HAIYANG-2B,2018-081A,2026-07-13T04:54:20.191104,13.79306885,.0000805,99.3289,202.5678,148.2262,211.8938,0,U,43655,999,38851,.15116E-3,.111E-5,0
CFOSAT,2018-083A,2026-07-13T03:47:35.005056,15.16528351,.0001896,97.3615,197.9259,76.0745,284.0699,0,U,43662,999,42637,.99023E-4,.1866E-4,0
TEN-KOH,2018-084G,2026-07-12T11:44:03.243552,15.03036085,.00099828,98.0754,26.9162,38.1645,322.0284,0,U,43677,999,41996,.14412106E-3,.1876E-4,0
DIWATA-2B,2018-084H,2026-07-13T04:15:04.444128,15.00558666,.0012938,98.1217,31.5237,90.5181,269.7524,0,U,43678,999,42011,.10397E-3,.1248E-4,0
STARS-AO,2018-084J,2026-07-12T12:45:04.199904,15.17327321,.00036091,98.0478,49.0667,85.7607,274.4037,0,U,43679,999,42131,.17779076E-3,.347E-4,0
AUTCUBE 2,2018-084K,2026-07-12T12:59:21.212736,15.10253774,.00079937,98.0693,41.0610,324.9177,35.1524,0,U,43681,999,42075,.12139039E-3,.1915E-4,0
METOP-C,2018-087A,2026-07-13T04:21:39.731040,14.21518719,.0002211,98.6631,253.3084,96.4514,263.6916,0,U,43689,999,39852,.43911E-4,.53E-6,0
ES'HAIL 2,2018-090A,2026-07-13T03:19:17.810112,1.00269840,.0002215,0.0040,120.2823,40.4145,205.9303,0,U,43700,999,2793,0,.142E-5,0
MOHAMMED VI-B,2018-095A,2026-07-13T04:33:21.400992,14.77080152,.0001754,97.9554,266.1551,95.4036,264.7375,0,U,43717,999,41202,.41767E-4,.244E-5,0
HYSIS,2018-096A,2026-07-13T04:43:38.068896,14.78666121,.000183,97.9836,260.7391,85.1460,274.9959,0,U,43719,999,41126,.23193E-4,.118E-5,0
COSMOS 2530 (RODNIK-S 16),2018-097A,2026-07-13T05:11:34.240128,12.42881797,.0019066,82.5122,206.1260,343.4049,16.6405,0,U,43751,999,34552,.17199E-3,.34E-6,0
COSMOS 2531 (RODNIK-S 17),2018-097B,2026-07-13T03:46:48.449280,12.42913232,.0016694,82.5168,207.2298,3.4973,356.6221,0,U,43752,999,34553,.31115E-3,.53E-6,0
COSMOS 2532 (RODNIK-S 18),2018-097C,2026-07-13T04:27:35.932320,12.42910295,.0018138,82.5112,205.9864,5.2278,354.8988,0,U,43753,999,34550,-.30397E-3,-.32E-6,0
MINXSS-2,2018-099A,2026-07-12T18:11:38.124960,15.48699812,.000842,97.4535,270.8221,167.9951,192.1502,0,U,43758,999,41808,.59117E-3,.31684E-3,0
SIRION PATHFINDER-2,2018-099B,2026-07-12T22:42:56.582208,15.14767949,.0008239,97.4243,242.3930,199.6407,160.4509,0,U,43759,999,41652,.16276E-3,.2956E-4,0
AISTECHSAT 2,2018-099L,2026-07-12T20:06:55.963008,15.15700376,.0004358,97.4282,241.3121,187.9002,172.2162,0,U,43768,999,41616,.16795E-3,.3133E-4,0
FOX-1CLIFF (AO-95),2018-099N,2026-07-13T03:48:48.255840,15.27248870,.00071,97.4377,254.3164,248.3656,111.6827,0,U,43770,999,41718,.28877E-3,.7642E-4,0
RANGE-A,2018-099R,2026-07-13T02:16:28.235136,15.13598264,.0008565,97.3954,235.9170,253.7902,106.2388,0,U,43773,999,41641,.13199E-3,.2307E-4,0
