S-NET C                 
1 43189U 18014K   26194.20629830  .00002878  00000+0  14959-3 0  9996
2 43189  97.5373  99.1155 0008146 278.8117  81.2193 15.16868362461252
PAZ                     
1 43215U 18020A   26194.19085193  .00001054  00000+0  53388-4 0  9994
2 43215  97.4454 201.2071 0001701  89.7366 270.4063 15.19153697464958
GOES 17                 
1 43226U 18022A   26194.11557993 -.00000185  00000+0  00000+0 0  9995
2 43226   1.0012  85.2870 0000535  84.5056  73.3198  1.00271367 30689
LKW-4                   
1 43236U 18025A   26193.93879301  .00036258  00000+0  37898-3 0  9996
2 43236  97.6341   6.8731 0003279 190.1496 169.9697 15.64389361464058
ZHUHAI-1 OVS-02         
1 43440U 18040B   26194.21220101  .00004014  00000+0  16176-3 0  9991
2 43440  97.0381 209.9024 0004880 140.3347 219.8249 15.25360699456683
ZHUHAI-1 OHS-02         
1 43441U 18040C   26194.18245098  .00004905  00000+0  19166-3 0  9991
2 43441  97.0360 216.8399 0011058 131.4052 228.8140 15.26250242118242
GAOFEN-6                
1 43484U 18048A   26194.16324765  .00000160  00000+0  30565-4 0  9999
2 43484  98.0966 256.8602 0012149  87.5289 272.7311 14.76381992437229
LUOJIA-1 01             
1 43485U 18048B   26194.20996400  .00000330  00000+0  42501-4 0  9998
2 43485  97.8103 271.9800 0009877  43.4120 316.7873 14.87375072438088
PAKTES 1A               
1 43529U 18056A   26194.16890713  .00001040  00000+0  90426-4 0  9999
2 43529  98.1283 351.7641 0020005  26.0822 334.1403 14.99199259435817
PRSS-1                  
1 43530U 18056B   26194.18402779 -.00000174  00000+0 -15457-4 0  9994
2 43530  97.7816 261.3326 0001281  85.2015 274.9344 14.82025318432287
HAIYANG-1C              
1 43609U 18068A   26194.19802588 -.00000155  00000+0 -39748-4 0  9995
2 43609  98.5188 266.1285 0011280  24.0518 336.1191 14.34185686410819
SSTL S1-4               
1 43618U 18071A   26194.17081936  .00000517  00000+0  50719-4 0  9994
2 43618  97.4998  64.6997 0002048  98.2114 261.9341 14.96201490426824
HAIYANG-2B              
1 43655U 18081A   26194.20440036  .00000111  00000+0  15116-3 0  9991
2 43655  99.3289 202.5678 0000805 148.2262 211.8938 13.79306885388510
CFOSAT                  
1 43662U 18083A   26194.15804404  .00001866  00000+0  99023-4 0  9996
2 43662  97.3615 197.9259 0001896  76.0745 284.0699 15.16528351426376
TEN-KOH                 
1 43677U 18084G   26193.48892643  .00001876  00000+0  14412-3 0  9999
2 43677  98.0754  26.9162 0009982  38.1645 322.0284 15.03036085419964
DIWATA-2B               
1 43678U 18084H   26194.17713477  .00001248  00000+0  10397-3 0  9995
2 43678  98.1217  31.5237 0012938  90.5181 269.7524 15.00558666420111
STARS-AO                
1 43679U 18084J   26193.53129861  .00003470  00000+0  17779-3 0  9993
2 43679  98.0478  49.0667 0003609  85.7607 274.4037 15.17327321421310
AUTCUBE 2               
1 43681U 18084K   26193.54121774  .00001915  00000+0  12139-3 0  9999
2 43681  98.0693  41.0610 0007993 324.9177  35.1524 15.10253774420755
METOP-C                 
1 43689U 18087A   26194.18170985  .00000053  00000+0  43911-4 0  9994
2 43689  98.6631 253.3084 0002211  96.4514 263.6916 14.21518719398524
ES'HAIL 2               
1 43700U 18090A   26194.13840058  .00000142  00000+0  00000+0 0  9998
2 43700   0.0040 120.2823 0002215  40.4145 205.9303  1.00269840 27939
MOHAMMED VI-B           
1 43717U 18095A   26194.18983103  .00000244  00000+0  41767-4 0  9998
2 43717  97.9554 266.1551 0001754  95.4036 264.7375 14.77080152412021
HYSIS                   
1 43719U 18096A   26194.19696839  .00000118  00000+0  23193-4 0  9992
2 43719  97.9836 260.7391 0001830  85.1460 274.9959 14.78666121411263
COSMOS 2530 (RODNIK-S *)
1 43751U 18097A   26194.21636852  .00000034  00000+0  17199-3 0  9996
2 43751  82.5122 206.1260 0019066 343.4049  16.6405 12.42881797345528
COSMOS 2531 (RODNIK-S *)
1 43752U 18097B   26194.15750520  .00000053  00000+0  31115-3 0  9994
2 43752  82.5168 207.2298 0016694   3.4973 356.6221 12.42913232345539
COSMOS 2532 (RODNIK-S *)
1 43753U 18097C   26194.18583255 -.00000032  00000+0 -30397-3 0  9997
2 43753  82.5112 205.9864 0018138   5.2278 354.8988 12.42910295345509
MINXSS-2                
1 43758U 18099A   26193.75808015  .00031684  00000+0  59117-3 0  9996
2 43758  97.4535 270.8221 0008420 167.9951 192.1502 15.48699812418080
SIRION PATHFINDER-2     
1 43759U 18099B   26193.94648822  .00002956  00000+0  16276-3 0  9995
2 43759  97.4243 242.3930 0008239 199.6407 160.4509 15.14767949416526
AISTECHSAT 2            
1 43768U 18099L   26193.83814772  .00003133  00000+0  16795-3 0  9996
2 43768  97.4282 241.3121 0004358 187.9002 172.2162 15.15700376416167
FOX-1CLIFF (AO-95)      
1 43770U 18099N   26194.15889185  .00007642  00000+0  28877-3 0  9998
2 43770  97.4377 254.3164 0007100 248.3656 111.6827 15.27248870417188
RANGE-A                 
1 43773U 18099R   26194.09477124  .00002307  00000+0  13199-3 0  9994
2 43773  97.3954 235.9170 0008565 253.7902 106.2388 15.13598264416410
